BEIDOU-2 G3             
1 36590U 10024A   26186.09347293 -.00000124  00000+0  00000+0 0  9996
2 36590   4.5556  61.4366 0007796 358.5519 336.4127  1.00270512 58941
BADR-5                  
1 36592U 10025A   26186.22624701  .00000167  00000+0  00000+0 0  9992
2 36592   0.0567 113.5982 0004627  76.8029 204.7273  1.00271084 53393
COMS 1                  
1 36744U 10032A   26185.86445056 -.00000135  00000+0  00000+0 0  9998
2 36744   4.8475  75.1472 0011639  14.1480 147.8491  0.99169370 51260
ARABSAT-5A              
1 36745U 10032B   26184.58668141  .00000165  00000+0  00000+0 0  9991
2 36745   0.0852  59.3271 0005796  58.0470  45.9611  1.00275167 58817
ECHOSTAR 15             
1 36792U 10034A   26186.19670394  .00000013  00000+0  00000+0 0  9999
2 36792   0.0295 290.3218 0002406 147.1175 157.7688  1.00270387 58506
BEIDOU-2 IGSO-1         
1 36828U 10036A   26185.97829638 -.00000073  00000+0  00000+0 0  9990
2 36828  54.3059 162.7991 0059183 225.2498 354.5072  1.00267280 58272
NILESAT 201             
1 36830U 10037A   26186.21888031 -.00000044  00000+0  00000+0 0  9992
2 36830   0.0094 274.7357 0005468 215.8811 224.4062  1.00271956 58553
RASCOM-QAF 1R           
1 36831U 10037B   26184.58122139  .00000030  00000+0  00000+0 0  9995
2 36831   0.0093  91.6422 0006582   1.8070  40.2800  1.00271534 58477
AEHF-1 (USA 214)        
1 36868U 10039A   26185.79848514  .00000157  00000+0  00000+0 0  9993
2 36868   8.2612  67.8150 0003996  32.5322 139.8497  1.00270144 53832
XM-5                    
1 37185U 10053A   26183.85406361 -.00000012  00000+0  00000+0 0  9998
2 37185   0.0667 268.1133 0002415 288.6084 276.4302  1.00271810 57643
BSAT-3B                 
1 37207U 10056B   26186.02813091 -.00000337  00000+0  00000+0 0  9990
2 37207   0.0553 228.9802 0002304 309.7603 224.2589  1.00272082 52272
BEIDOU-2 G4             
1 37210U 10057A   26186.35338730 -.00000101  00000+0  00000+0 0  9992
2 37210   3.6892  68.8383 0004974 187.3736 314.3298  1.00271193 57475
SKYTERRA 1              
1 37218U 10061A   26185.13089791 -.00000108  00000+0  00000+0 0  9997
2 37218   5.1588  50.8236 0002214  42.9284 134.1987  1.00270206 57364
HYLAS 1                 
1 37237U 10065A   26181.30407082  .00000096  00000+0  00000+0 0  9999
2 37237   5.6751  72.8623 0001043 340.0885 348.6881  1.00272596  7010
INTELSAT 17 (IS-17)     
1 37238U 10065B   26186.16201041  .00000012  00000+0  00000+0 0  9994
2 37238   0.0042  48.0005 0002561  59.9264 299.5411  1.00272165 53426
BEIDOU-2 IGSO-2         
1 37256U 10068A   26185.78653084 -.00000194  00000+0  00000+0 0  9994
2 37256  47.5153 271.6140 0056612 213.9633 188.6395  1.00277550 56972
EUTELSAT KA-SAT 9A      
1 37258U 10069A   26183.58434090  .00000072  00000+0  00000+0 0  9991
2 37258   0.0605  12.7072 0003862 123.3444   3.9181  1.00271458 44162
HISPASAT 30W-5          
1 37264U 10070A   26186.26385478 -.00000203  00000+0  00000+0 0  9990
2 37264   0.0437 105.6655 0005774  11.3649 231.2185  1.00270570 53364
KOREASAT 6              
1 37265U 10070B   26185.46778125 -.00000099  00000+0  00000+0 0  9990
2 37265   0.0199  71.9173 0002612  44.3221 134.5275  1.00271886 56943
BEIDOU-2 IGSO-3         
1 37384U 11013A   26185.97381966 -.00000165  00000+0  00000+0 0  9993
2 37384  62.4314  39.9847 0035240 183.4155 157.1705  1.00263911 55838
INTELSAT 28 (IS-28)     
1 37392U 11016A   26186.17525535 -.00000213  00000+0  00000+0 0  9994
2 37392   1.8497  82.4125 0003830  25.4226 206.6890  1.00271163 53462
YAHSAT 1A               
1 37393U 11016B   26183.76845293  .00000000  00000+0  00000+0 0  9996
2 37393   0.0185  40.6280 0003400  71.1376 138.1848  1.00269059 42565
SBIRS GEO-1 (USA 230)   
1 37481U 11019A   26185.58893537  .00000110  00000+0  00000+0 0  9995
2 37481   4.5740  53.1133 0001918  44.3946  88.9026  1.00272823 55570
TELSTAR 14R             
1 37602U 11021A   26185.35233074 -.00000268  00000+0  00000+0 0  9997
2 37602   0.0586  83.3299 0002120 355.7829 267.0993  1.00270939 56005
GSAT-8                  
1 37605U 11022A   26185.51831509  .00000096  00000+0  00000+0 0  9994
2 37605   2.1730  81.6229 0002128 166.7757 275.8147  1.00271356 53395
ST-2                    
1 37606U 11022B   26186.16634376 -.00000198  00000+0  00000+0 0  9994
2 37606   0.0163  76.5573 0001689  43.8338 310.6830  1.00270996 55454
ZHONGXING-10            
1 37677U 11026A   26186.09459961 -.00000176  00000+0  00000+0 0  9999
2 37677   1.0908  84.0103 0003776  13.6950 304.9799  1.00271281 55174
SES-3                   
1 37748U 11035A   26186.12859587 -.00000089  00000+0  00000+0 0  9993
2 37748   1.3702  82.9048 0002233  15.0961 128.4322  1.00271908 54770
KAZSAT-2                
1 37749U 11035B   26183.87531448 -.00000187  00000+0  00000+0 0  9995
2 37749   0.0160 119.0733 0001822  37.1147 166.3416  1.00272906 53551
BEIDOU-2 IGSO-4         
1 37763U 11038A   26185.97739419  .00000036  00000+0  00000+0 0  9997
2 37763  54.6038 165.5148 0159950 231.4052 331.9664  1.00281969 54827
ASTRA 1N                
1 37775U 11041A   26183.58642093  .00000130  00000+0  00000+0 0  9995
2 37775   0.0898  44.2622 0005880  55.7608  50.8904  1.00272787 44680
BSAT-3C (JCSAT-110R)    
1 37776U 11041B   26184.67989674 -.00000339  00000+0  00000+0 0  9998
2 37776   0.0264 316.8457 0000776 197.5232 122.0426  1.00271850 50632
